OBJECT_NAME,OBJECT_ID,EPOCH,MEAN_MOTION,ECCENTRICITY,INCLINATION,RA_OF_ASC_NODE,ARG_OF_PERICENTER,MEAN_ANOMALY,EPHEMERIS_TYPE,CLASSIFICATION_TYPE,NORAD_CAT_ID,ELEMENT_SET_NO,REV_AT_EPOCH,BSTAR,MEAN_MOTION_DOT,MEAN_MOTION_DDOT
LDPE-2,2022-144A,2026-07-13T16:15:17.957952,1.00543242,.000237,5.6748,63.4290,110.7044,229.2022,0,U,54219,999,1210,0,.28E-6,0
EUTELSAT HOTBIRD 13G,2022-146A,2026-07-13T20:22:14.711232,1.00268715,.0002419,0.0146,236.0241,309.3765,64.8996,0,U,54225,999,773,0,0,0
ZHONGXING-19,2022-148A,2026-07-13T19:22:22.556928,1.00269426,.0002982,0.0187,42.1755,97.6512,245.6402,0,U,54230,999,1364,0,0,0
GALAXY 31 (G-31),2022-153A,2026-07-13T14:36:03.466080,1.00270713,.0000944,0.0171,66.0837,53.9617,269.4339,0,U,54243,999,739,0,.9E-7,0
GALAXY 32 (G-32),2022-153B,2026-07-13T12:13:38.932032,1.00269974,.00014004,0.0121,29.6563,18.1075,336.0269,0,U,54244,999,1340,0,-.178E-5,0
EUTELSAT 10B,2022-157A,2026-07-13T08:22:41.421792,1.00267609,.00016082,0.0609,95.3158,17.0416,314.5294,0,U,54259,999,1328,0,.64E-6,0
GALAXY 35 (G-35),2022-170A,2026-07-13T19:51:57.220704,1.00268549,.0001894,0.0255,66.8754,50.3882,19.3205,0,U,54741,999,1316,0,0,0
GALAXY 36 (G-36),2022-170B,2026-07-13T19:52:57.126144,1.00268922,.0002378,0.0109,83.2850,17.9872,39.6784,0,U,54742,999,1304,0,0,0
METEOSAT-12 (MTG-I1),2022-170C,2026-07-13T20:18:22.582080,1.00267371,.0003776,0.7236,19.4807,82.3879,134.1395,0,U,54743,999,1324,0,-.14E-6,0
SHIJIAN-23 (SJ-23),2023-002A,2026-07-13T18:34:53.605056,1.00077393,.0003432,3.7833,77.9768,270.3095,352.1879,0,U,55131,999,1277,0,-.357E-5,0
APSTAR-6E,2023-005A,2026-07-13T19:14:00.858912,1.00265658,.0001717,0.0668,239.2682,340.0712,134.8519,0,U,55239,999,1895,0,-.323E-5,0
USA 342,2023-008A,2026-07-09T06:55:38.597952,1.00269378,.0000262,0.0052,352.2306,7.3445,55.4773,0,U,55263,999,1273,0,0,0
LDPE-3A,2023-008B,2026-07-13T20:59:19.461984,0.99150497,.0001504,2.4151,81.3333,79.3503,229.0101,0,U,55264,999,1207,0,-.303E-5,0
ELEKTRO-L 4,2023-016A,2026-07-13T17:30:21.879360,1.00270174,.0001543,0.1241,277.9054,268.1180,173.9604,0,U,55506,999,1259,0,-.63E-6,0
AMAZONAS NEXUS,2023-017A,2026-07-13T18:18:24.198048,1.00268939,.0004364,0.0356,42.7695,42.6416,59.8176,0,U,55508,999,731,0,-.287E-5,0
ZHONGXING-26,2023-023A,2026-07-13T20:54:04.965120,1.00277497,.0003479,0.0630,70.5502,34.5452,265.2759,0,U,55686,999,1249,0,-.359E-5,0
LUCH-5X (OLYMP-K 2),2023-031A,2026-07-13T17:10:49.441728,1.00271441,.0000896,0.0297,94.8289,172.1151,344.3269,0,U,55841,999,1220,0,.29E-6,0
GAOFEN-13 02,2023-036A,2026-07-13T17:29:49.108704,1.00274536,.0003724,1.0272,4.3821,336.0876,1.8028,0,U,55912,999,1235,0,-.223E-5,0
SES-18,2023-038A,2026-07-13T14:41:02.988096,1.00271552,.0000839,0.0570,259.1151,311.3017,198.2411,0,U,55970,999,1236,0,-.105E-5,0
SES-19,2023-038B,2026-07-12T23:08:12.649920,1.00273078,.00015959,0.0165,326.4823,156.8223,19.7105,0,U,55971,999,1235,0,.86E-6,0
INTELSAT 40E (IS-40E),2023-052A,2026-07-13T19:52:34.662144,1.00269319,.0002256,0.0245,67.7279,78.8748,352.2554,0,U,56174,999,1209,0,0,0
VIASAT-3 F1,2023-060A,2026-07-12T14:47:59.500896,1.00270234,.00010194,0.0161,22.0903,87.2892,314.1503,0,U,56370,999,1168,0,0,0
ARCTURUS,2023-060B,2026-07-13T19:03:39.350880,1.00595282,.0000911,2.8408,79.6108,131.6747,103.6830,0,U,56371,999,1172,0,-.336E-5,0
GS-1,2023-060C,2026-07-13T17:02:14.887392,1.00267170,.0003407,2.7917,79.5190,281.2052,275.7470,0,U,56372,999,780,0,-.229E-5,0
BEIDOU-3 G4,2023-066A,2026-07-13T20:58:27.045696,1.00272860,.0004874,0.4615,338.5469,187.8231,220.0439,0,U,56564,999,1166,0,-.285E-5,0
ARABSAT-7B (BADR-8),2023-075A,2026-07-13T01:36:42.399360,1.00271123,.0003307,0.0751,31.4954,358.8618,310.7639,0,U,56757,999,1137,0,.143E-5,0
NVS-01 (IRNSS-1J),2023-076A,2026-07-13T20:55:27.331968,1.00265232,.0003563,2.1050,243.1469,7.3511,124.5587,0,U,56759,999,1138,0,-.341E-5,0
NUSANTARA TIGA (SATRIA),2023-086A,2026-07-13T12:36:13.143168,1.00267768,.00021926,0.0347,13.2245,326.8860,286.3349,0,U,57045,999,1002,0,-.239E-5,0
H2SAT (HEINRICH HERTZ),2023-093A,2026-07-13T20:18:37.556928,1.00269922,.0000378,0.0205,97.8630,50.1962,89.0036,0,U,57213,999,1118,0,-.4E-7,0
SYRACUSE 4B,2023-093B,2026-07-13T13:26:01.019328,1.00269537,.0000448,0.0280,56.3015,204.3313,225.8578,0,U,57214,999,723,0,0,0
JUPITER 3 (ECHOSTAR 24),2023-108A,2026-07-13T10:55:27.126048,1.00272946,.0001178,0.0124,33.8048,74.3050,251.8897,0,U,57479,999,1090,0,-.154E-5,0
GALAXY 37 (G-37),2023-112A,2026-07-13T14:34:18.635232,1.00271208,.0001736,0.0209,72.2234,45.1732,265.6549,0,U,57493,999,1080,0,.44E-6,0
