LDPE-2                  
1 54219U 22144A   26194.67729118  .00000028  00000+0  00000+0 0  9995
2 54219   5.6748  63.4290 0002370 110.7044 229.2022  1.00543242 12100
EUTELSAT HOTBIRD 13G    
1 54225U 22146A   26194.84878138  .00000000  00000+0  00000+0 0  9990
2 54225   0.0146 236.0241 0002419 309.3765  64.8996  1.00268715  7737
ZHONGXING-19            
1 54230U 22148A   26194.80720552  .00000000  00000+0  00000+0 0  9990
2 54230   0.0187  42.1755 0002982  97.6512 245.6402  1.00269426 13644
GALAXY 31 (G-31)        
1 54243U 22153A   26194.60837345  .00000009  00000+0  00000+0 0  9996
2 54243   0.0171  66.0837 0000944  53.9617 269.4339  1.00270713  7393
GALAXY 32 (G-32)        
1 54244U 22153B   26194.50947838 -.00000178  00000+0  00000+0 0  9993
2 54244   0.0121  29.6563 0001400  18.1075 336.0269  1.00269974 13408
EUTELSAT 10B            
1 54259U 22157A   26194.34909053  .00000064  00000+0  00000+0 0  9995
2 54259   0.0609  95.3158 0001608  17.0416 314.5294  1.00267609 13280
GALAXY 35 (G-35)        
1 54741U 22170A   26194.82774561  .00000000  00000+0  00000+0 0  9993
2 54741   0.0255  66.8754 0001894  50.3882  19.3205  1.00268549 13165
GALAXY 36 (G-36)        
1 54742U 22170B   26194.82843896  .00000000  00000+0  00000+0 0  9992
2 54742   0.0109  83.2850 0002378  17.9872  39.6784  1.00268922 13049
METEOSAT-12 (MTG-I1)    
1 54743U 22170C   26194.84609470 -.00000014  00000+0  00000+0 0  9999
2 54743   0.7236  19.4807 0003776  82.3879 134.1395  1.00267371 13245
SHIJIAN-23 (SJ-23)      
1 55131U 23002A   26194.77423154 -.00000357  00000+0  00000+0 0  9991
2 55131   3.7833  77.9768 0003432 270.3095 352.1879  1.00077393 12775
APSTAR-6E               
1 55239U 23005A   26194.80139883 -.00000323  00000+0  00000+0 0  9993
2 55239   0.0668 239.2682 0001717 340.0712 134.8519  1.00265658 18958
USA 342                 
1 55263U 23008A   26190.28864118  .00000000  00000+0  00000+0 0  9998
2 55263   0.0052 352.2306 0000262   7.3445  55.4773  1.00269378 12734
LDPE-3A                 
1 55264U 23008B   26194.87453081 -.00000303  00000+0  00000+0 0  9998
2 55264   2.4151  81.3333 0001504  79.3503 229.0101  0.99150497 12074
ELEKTRO-L 4             
1 55506U 23016A   26194.72941990 -.00000063  00000+0  00000+0 0  9994
2 55506   0.1241 277.9054 0001543 268.1180 173.9604  1.00270174 12593
AMAZONAS NEXUS          
1 55508U 23017A   26194.76278007 -.00000287  00000+0  00000+0 0  9991
2 55508   0.0356  42.7695 0004364  42.6416  59.8176  1.00268939  7317
ZHONGXING-26            
1 55686U 23023A   26194.87089080 -.00000359  00000+0  00000+0 0  9998
2 55686   0.0630  70.5502 0003479  34.5452 265.2759  1.00277497 12495
LUCH-5X (OLYMP-K 2)     
1 55841U 23031A   26194.71585002  .00000029  00000+0  00000+0 0  9991
2 55841   0.0297  94.8289 0000896 172.1151 344.3269  1.00271441 12200
GAOFEN-13 02            
1 55912U 23036A   26194.72904061 -.00000223  00000+0  00000+0 0  9993
2 55912   1.0272   4.3821 0003724 336.0876   1.8028  1.00274536 12351
SES-18                  
1 55970U 23038A   26194.61184014 -.00000105  00000+0  00000+0 0  9994
2 55970   0.0570 259.1151 0000839 311.3017 198.2411  1.00271552 12361
SES-19                  
1 55971U 23038B   26193.96403530  .00000086  00000+0  00000+0 0  9996
2 55971   0.0165 326.4823 0001595 156.8223  19.7105  1.00273078 12358
INTELSAT 40E (IS-40E)   
1 56174U 23052A   26194.82817896  .00000000  00000+0  00000+0 0  9994
2 56174   0.0245  67.7279 0002256  78.8748 352.2554  1.00269319 12090
VIASAT-3 F1             
1 56370U 23060A   26193.61666089  .00000000  00000+0  00000+0 0  9993
2 56370   0.0161  22.0903 0001019  87.2892 314.1503  1.00270234 11686
ARCTURUS                
1 56371U 23060B   26194.79420545 -.00000336  00000+0  00000+0 0  9992
2 56371   2.8408  79.6108 0000911 131.6747 103.6830  1.00595282 11721
GS-1                    
1 56372U 23060C   26194.70989453 -.00000229  00000+0  00000+0 0  9993
2 56372   2.7917  79.5190 0003407 281.2052 275.7470  1.00267170  7807
BEIDOU-3 G4             
1 56564U 23066A   26194.87392414 -.00000285  00000+0  00000+0 0  9997
2 56564   0.4615 338.5469 0004874 187.8231 220.0439  1.00272860 11665
ARABSAT-7B (BADR-8)     
1 56757U 23075A   26194.06715740  .00000143  00000+0  00000+0 0  9995
2 56757   0.0751  31.4954 0003307 358.8618 310.7639  1.00271123 11371
NVS-01 (IRNSS-1J)       
1 56759U 23076A   26194.87184412 -.00000341  00000+0  00000+0 0  9994
2 56759   2.1050 243.1469 0003563   7.3511 124.5587  1.00265232 11381
NUSANTARA TIGA (SATRIA) 
1 57045U 23086A   26194.52515212 -.00000239  00000+0  00000+0 0  9998
2 57045   0.0347  13.2245 0002192 326.8860 286.3349  1.00267768 10026
H2SAT (HEINRICH HERTZ)  
1 57213U 23093A   26194.84626802 -.00000004  00000+0  00000+0 0  9996
2 57213   0.0205  97.8630 0000378  50.1962  89.0036  1.00269922 11189
SYRACUSE 4B             
1 57214U 23093B   26194.55973402  .00000000  00000+0  00000+0 0  9991
2 57214   0.0280  56.3015 0000448 204.3313 225.8578  1.00269537  7235
JUPITER 3 (ECHOSTAR 24) 
1 57479U 23108A   26194.45517507 -.00000154  00000+0  00000+0 0  9991
2 57479   0.0124  33.8048 0001178  74.3050 251.8897  1.00272946 10904
GALAXY 37 (G-37)        
1 57493U 23112A   26194.60716013  .00000044  00000+0  00000+0 0  9999
2 57493   0.0209  72.2234 0001736  45.1732 265.6549  1.00271208 10807
